COSMOS 2433 [GLONASS-M] 
1 32275U 07052A   26087.20336590 -.00000030  00000+0  00000+0 0  9996
2 32275  65.6216 318.6607 0001116 260.7324  99.3104  2.13103881143338
COSMOS 2432 [GLONASS-M] 
1 32276U 07052B   26086.56903220 -.00000031  00000+0  00000+0 0  9996
2 32276  65.6372 318.8082 0009989 334.8511 202.7099  2.13103077143349
COSMOS 2434 [GLONASS-M] 
1 32393U 07065A   26085.48499492 -.00000016  00000+0  00000+0 0  9994
2 32393  64.3174 194.7028 0003008  65.6290 306.3532  2.13101314142013
COSMOS 2436 [GLONASS-M] 
1 32395U 07065C   26085.30743119 -.00000013  00000+0  00000+0 0  9992
2 32395  64.3260 194.7801 0017338   4.3123   4.1011  2.13100149141969
COSMOS 2456 [GLONASS-M] 
1 36111U 09070A   26086.46425047  .00000041  00000+0  00000+0 0  9995
2 36111  64.9641  73.7582 0006535 309.8449 251.0676  2.13103415126682
COSMOS 2457 [GLONASS-M] 
1 36112U 09070B   26085.09286998  .00000040  00000+0  00000+0 0  9993
2 36112  64.9488  73.6506 0001624 196.4354 160.5699  2.13100904126652
COSMOS 2460 [GLONASS-M] 
1 36402U 10007C   26084.39211837 -.00000030  00000+0  00000+0 0  9999
2 36402  65.4675 317.3041 0002062  36.6538 143.8601  2.13106133124943
COSMOS 2476 [GLONASS-M] 
1 37867U 11064A   26081.32240285  .00000034  00000+0  00000+0 0  9991
2 37867  65.2205  75.8028 0025128 241.8014 242.7933  2.13103886111916
COSMOS 2477 [GLONASS-M] 
1 37868U 11064B   26087.25601953  .00000043  00000+0  00000+0 0  9993
2 37868  65.2312  75.6808 0022004 243.8544 293.4081  2.13102715112031
COSMOS 2475 [GLONASS-M] 
1 37869U 11064C   26087.78867443  .00000041  00000+0  00000+0 0  9998
2 37869  65.2381  75.6837 0027951 255.2552 286.1030  2.13101469112052
COSMOS 2485 [GLONASS-M] 
1 39155U 13019A   26087.19744583  .00000045  00000+0  00000+0 0  9998
2 39155  65.3750  76.3211 0025141 237.7712 121.9957  2.13102903100559
COSMOS 2492 [GLONASS-M] 
1 39620U 14012A   26085.27933052 -.00000029  00000+0  00000+0 0  9990
2 39620  65.3447 316.7556 0012642 328.9539  31.0243  2.13103147 93476
COSMOS 2500 [GLONASS-M] 
1 40001U 14032A   26087.79643145 -.00000026  00000+0  00000+0 0  9994
2 40001  65.2782 316.4236 0005080 190.1719 169.8736  2.13105819 91744
COSMOS 2501 [GLONASS-K] 
1 40315U 14075A   26084.30325579  .00000001  00000+0  00000+0 0  9993
2 40315  63.6158 193.2737 0021182 207.3153 152.5805  2.13101287 88064
COSMOS 2514 [GLONASS-M] 
1 41330U 16008A   26087.10324796 -.00000025  00000+0  00000+0 0  9997
2 41330  65.0686 315.7909 0009016 203.3662 156.6472  2.13102591 78893
COSMOS 2522 [GLONASS-M] 
1 42939U 17055A   26083.18703733  .00000020  00000+0  00000+0 0  9996
2 42939  64.0784 194.7748 0007868 230.2375 129.7005  2.13101803 66161
COSMOS 2527 [GLONASS-M] 
1 43508U 18053A   26087.37166813  .00000046  00000+0  00000+0 0  9993
2 43508  65.5335  76.6017 0009308 247.7954 112.1166  2.13101960 60551
